NOAA 1                  
1 04793U 70106A   25267.72480976 -.00000021  00000+0  13447-3 0  9997
2 04793 101.3797 308.5939 0031861 146.8340 327.4016 12.54045308507417
NOAA 2 (ITOS-D)         
1 06235U 72082A   25268.00421999 -.00000032  00000+0  93455-4 0  9997
2 06235 102.0237 278.5326 0003893 320.1094  68.0166 12.53204971421736
NOAA 3                  
1 06920U 73086A   25267.92982804 -.00000036  00000+0  76735-4 0  9996
2 06920 102.2933 274.3059 0006177 253.1652 169.4051 12.40386218349012
NOAA 4                  
1 07529U 74089A   25267.98868932 -.00000045  00000+0  10162-4 0  9999
2 07529 102.0085 272.9650 0009014 344.7612  70.7999 12.53196710326303
NOAA 5                  
1 09057U 76077A   25267.91571223 -.00000031  00000+0  11238-3 0  9992
2 09057 102.2715 247.7313 0009999 103.0901 313.0835 12.37822029221653
TIROS N                 
1 11060U 78096A   25267.50758985  .00000295  00000+0  16043-3 0  9999
2 11060  98.4809 295.2914 0009350 294.9841  65.0364 14.19237066641064
NOAA 6                  
1 11416U 79057A   25267.57382667  .00000581  00000+0  21851-3 0  9990
2 11416  98.5939 293.6086 0009246 331.7385  28.3298 14.35257869412855
NOAA 7                  
1 12553U 81059A   25267.17769673  .00000130  00000+0  85711-4 0  9996
2 12553  98.8334 331.3917 0010629 312.6201  47.4077 14.17726654287057
NOAA 8                  
1 13923U 83022A   25267.97378355  .00000319  00000+0  14178-3 0  9998
2 13923  98.7399 275.2440 0014055 317.7562  42.2536 14.29673933213178
NOAA 9                  
1 15427U 84123A   25267.99273399  .00000237  00000+0  14111-3 0  9992
2 15427  99.1215 283.1997 0015021  24.6013  33.9124 14.16960444105863
NOAA 10                 
1 16969U 86073A   25267.77251911  .00000321  00000+0  14417-3 0  9995
2 16969  98.6848 256.6773 0013048  55.3513 117.7950 14.29047148 31509
NOAA 11                 
1 19531U 88089A   25267.85011268  .00000155  00000+0  10044-3 0  9997
2 19531  98.5818 217.7130 0010838 345.5062  14.5800 14.15768302909931
NOAA 12                 
1 21263U 91032A   25267.89001157  .00000244  00000+0  11892-3 0  9995
2 21263  98.5983 255.6711 0014831  84.0031 276.2840 14.26641523787137
NOAA 13                 
1 22739U 93050A   25267.80987834  .00000233  00000+0  14635-3 0  9998
2 22739  98.6663 215.4089 0009631 160.5189 199.6354 14.13559312655884
NOAA 14                 
1 23455U 94089A   25267.82103087  .00000148  00000+0  98104-4 0  9998
2 23455  98.4771 245.1639 0010400 122.2249 237.9935 14.14605823585688
NOAA 15                 
1 25338U 98030A   25267.80995400  .00000305  00000+0  14291-3 0  9995
2 25338  98.5310 290.3402 0011116  49.7609 310.4543 14.27021300423441
NOAA 16                 
1 26536U 00055A   25268.00133258  .00000186  00000+0  11994-3 0  9998
2 26536  98.4836 291.0746 0010106 349.4520  10.6440 14.13834990586259
NOAA 17                 
1 27453U 02032A   25267.95933505  .00000429  00000+0  19835-3 0  9992
2 27453  98.8249 226.1161 0012460  44.1173 316.0998 14.26062616209185
NOAA 18                 
1 28654U 05018A   25267.85322795  .00000218  00000+0  13893-3 0  9999
2 28654  98.8359 346.0931 0014279 180.9157 179.1992 14.13640839 48828
NOAA 19                 
1 33591U 09005A   25267.94775947  .00000200  00000+0  13021-3 0  9990
2 33591  98.9871 333.2050 0014636  62.9247 297.3416 14.13410435857010
SUOMI NPP               
1 37849U 11061A   25267.96115573  .00000200  00000+0  11596-3 0  9995
2 37849  98.7633 206.0638 0002002  44.8823 315.2515 14.19520012720812
NOAA 20 (JPSS-1)        
1 43013U 17073A   25267.83509460  .00000176  00000+0  10419-3 0  9997
2 43013  98.7460 205.0472 0001157  35.0652 325.0601 14.19563313406825
NOAA 21 (JPSS-2)        
1 54234U 22150A   25267.87114916  .00000203  00000+0  11693-3 0  9994
2 54234  98.7323 205.2131 0000994 182.5361 177.5810 14.19562156148905
